[{"OBJECT_NAME":"STARLINK-3862","OBJECT_ID":"2022-049W","EPOCH":"2026-03-09T09:21:32.946624","MEAN_MOTION":15.08839619,"ECCENTRICITY":0.00014671,"INCLINATION":53.2166,"RA_OF_ASC_NODE":60.4748,"ARG_OF_PERICENTER":81.7422,"MEAN_ANOMALY":278.3736,"EPHEMERIS_TYPE":0,"CLASSIFICATION_TYPE":"U","NORAD_CAT_ID":52471,"ELEMENT_SET_NO":999,"REV_AT_EPOCH":21220,"BSTAR":7.4687216e-5,"MEAN_MOTION_DOT":9.01e-6,"MEAN_MOTION_DDOT":0},{"OBJECT_NAME":"AAC-HSI-SAT1","OBJECT_ID":"2023-054AZ","EPOCH":"2026-03-09T21:58:39.446112","MEAN_MOTION":15.121108,"ECCENTRICITY":0.00115868,"INCLINATION":97.3836,"RA_OF_ASC_NODE":308.6521,"ARG_OF_PERICENTER":105.3166,"MEAN_ANOMALY":254.9346,"EPHEMERIS_TYPE":0,"CLASSIFICATION_TYPE":"U","NORAD_CAT_ID":56225,"ELEMENT_SET_NO":999,"REV_AT_EPOCH":16036,"BSTAR":0.00016323049,"MEAN_MOTION_DOT":2.752e-5,"MEAN_MOTION_DDOT":0}]
